EUTELSAT 21B            
1 38992U 12062B   25224.32981281  .00000131  00000+0  00000+0 0  9994
2 38992   0.0682 357.3685 0003133 137.2487 326.7154  1.00270811 46736
EUTELSAT 70B            
1 39020U 12069A   25224.62174705 -.00000042  00000+0  00000+0 0  9994
2 39020   0.0638 359.4420 0003530 143.2577 112.9241  1.00271550 46416
EUTELSAT 117 WEST A     
1 39122U 13012A   25224.51651855 -.00000012  00000+0  00000+0 0  9997
2 39122   0.0109  63.0149 0002921  87.3589 239.9724  1.00271875 45372
EUTELSAT 7B             
1 39163U 13022A   25224.25555823  .00000049  00000+0  00000+0 0  9991
2 39163   0.0764 327.0763 0002208  89.6003   3.2837  1.00273825 44859
EXPRESS-AT1             
1 39612U 14010A   25224.55081642  .00000080  00000+0  00000+0 0  9999
2 39612   0.0307 246.6968 0000408 190.0902 138.7398  1.00270990 41728
EXPRESS-AT2             
1 39613U 14010B   25224.54991272 -.00000280  00000+0  00000+0 0  9991
2 39613   0.0041 165.9294 0000553 279.1881 213.9334  1.00272162 41409
EUTELSAT 3B             
1 39773U 14030A   25224.39724785  .00000021  00000+0  00000+0 0  9998
2 39773   0.0633 356.8260 0004242 148.9882 321.3710  1.00270936 40970
EUTELSAT 115 WEST B     
1 40425U 15010B   25224.51695189 -.00000024  00000+0  00000+0 0  9996
2 40425   0.0100 243.6708 0000170 106.2319  42.4894  1.00270921 38338
